[{"OBJECT_NAME":"OPTICUBE 04","OBJECT_ID":"2016-067D","EPOCH":"2026-03-09T12:14:28.758048","MEAN_MOTION":15.09188378,"ECCENTRICITY":0.00170901,"INCLINATION":98.0811,"RA_OF_ASC_NODE":275.5525,"ARG_OF_PERICENTER":94.6311,"MEAN_ANOMALY":265.6869,"EPHEMERIS_TYPE":0,"CLASSIFICATION_TYPE":"U","NORAD_CAT_ID":41851,"ELEMENT_SET_NO":999,"REV_AT_EPOCH":51013,"BSTAR":0.00024566739,"MEAN_MOTION_DOT":3.845e-5,"MEAN_MOTION_DDOT":0},{"OBJECT_NAME":"STARLINK-3506","OBJECT_ID":"2022-016AP","EPOCH":"2026-03-09T21:52:42.896640","MEAN_MOTION":15.08845637,"ECCENTRICITY":0.00018898,"INCLINATION":53.2186,"RA_OF_ASC_NODE":308.1356,"ARG_OF_PERICENTER":77.7175,"MEAN_ANOMALY":282.4028,"EPHEMERIS_TYPE":0,"CLASSIFICATION_TYPE":"U","NORAD_CAT_ID":51751,"ELEMENT_SET_NO":999,"REV_AT_EPOCH":22373,"BSTAR":-0.00013442087,"MEAN_MOTION_DOT":-2.427e-5,"MEAN_MOTION_DDOT":0}]
